Name,Phone Number,City,Country
Quamar,(325) 272-0012,Haasdonk,French Guiana
Kenneth,(274) 405-6342,West Ham,Cape Verde
Kylynn,(107) 383-2085,Aurora,New Zealand
Rosalyn,(922) 162-9635,São José dos Pinhais,Mongolia
Joel,(847) 447-1529,Tarcento,Russian Federation
Quinn,(719) 392-3114,Greater Hobart,Canada
Drake,(631) 813-3177,Fulda,China
Kyle,(379) 168-5833,Taunusstein,Hungary
Harper,(810) 382-5759,Zandvoorde,Tonga
Kennedy,(398) 861-2625,Tourinnes-la-Grosse,Brunei
Felicia,(337) 785-9230,Newmarket,Cameroon
Gavin,(608) 101-3415,Brucargo,Saint Barthélemy
Graiden,(460) 600-0176,Paradise,Latvia
Ursula,(919) 443-4431,Hollange,Saint Barthélemy
Connor,(597) 241-0208,Juseret,El Salvador
Hilel,(980) 663-4605,Augusta,Belgium
Drew,(590) 158-1820,Hudson's Hope,New Caledonia
Keith,(743) 893-6480,Gelsenkirchen,Djibouti
Upton,(292) 825-2916,Felixstowe,Norfolk Island
Ora,(351) 357-6001,San Chirico Nuovo,Zimbabwe
Gary,(878) 113-5987,Portigliola,Bolivia
Yuli,(106) 449-6367,Aisén,Viet Nam
Larissa,(482) 430-2234,Frascati,Malta
Candice,(903) 910-8006,Hachy,Singapore
Britanney,(583) 968-8007,Tamworth,Marshall Islands
Jacob,(566) 338-8322,Sant'Urbano,Antigua and Barbuda
Stella,(991) 510-7988,Reading,Brazil
Brennan,(135) 853-0911,Talca,Guadeloupe
Melvin,(437) 766-4340,Bear,Cook Islands
Violet,(845) 691-8883,Panjim,Bahamas
May,(703) 681-3834,Quilaco,Zambia
Lisandra,(868) 349-6149,Seraing,Cyprus
Laurel,(366) 544-4620,Francavilla Fontana,Mayotte
Molly,(920) 469-0284,Hafizabad,Ireland
Dustin,(128) 173-0353,Montebello sul Sangro,Maldives
Harper,(645) 260-8988,Calera,Ecuador
Adrian,(812) 717-4809,Wolfurt,Hong Kong
Channing,(762) 504-8429,Otranto,Kiribati
Scarlet,(128) 995-5391,Puqueldón,Guernsey
Leonard,(641) 120-9948,Milford Haven,Faroe Islands
Shea,(547) 700-5963,HŽlŽcine,Azerbaijan
Carl,(603) 871-3172,Bayonne,Antigua and Barbuda
Kylynn,(683) 876-3034,Tuglie,Monaco
Basia,(439) 835-7919,Gjoa Haven,Hong Kong
Harper,(868) 783-1085,Saint-LŽger,Tokelau
Jada,(704) 821-6967,Ingolstadt,Bouvet Island
Dahlia,(111) 706-1733,Awka,Tanzania
Dorian,(790) 966-7002,Fort Collins,Chile
Tatyana,(743) 495-2224,Moliterno,Benin
Kai,(666) 873-3475,Cantalupo in Sabina,Cocos (Keeling) Islands
Tatiana,(390) 407-9035,Gießen,Georgia
Aidan,(748) 189-0252,Carlton,Cuba
Jameson,(611) 790-2315,Montacuto,Colombia
Danielle,(858) 480-4543,Bahawalpur,Chad
Phyllis,(740) 354-0793,Fraser-Fort George,Iceland
Clementine,(335) 973-8926,Saint-Denis,Solomon Islands
Keely,(497) 991-4679,Wilskerke,Falkland Islands
Steven,(903) 339-9788,Scanzano Jonico,British Indian Ocean Territory
Emerald,(368) 210-2196,Barnstaple,Serbia
Chester,(723) 800-4634,Coldstream,Heard Island and Mcdonald Islands
Ethan,(777) 207-3552,Augsburg,Algeria
Aspen,(142) 390-2770,Castellina in Chianti,Sint Maarten
Joy,(580) 437-1531,La Cisterna,Botswana
Myles,(265) 924-3133,Oteppe,"Palestine, State of"
Dawn,(476) 881-8525,Chepstow,Iceland
Charlotte,(498) 756-3645,Cherbourg-Octeville,Marshall Islands
Graham,(396) 973-7299,Vezirköprü,Christmas Island
Forrest,(948) 366-6894,Potsdam,Honduras
Aladdin,(598) 878-7247,Cockburn,Anguilla
Quincy,(491) 114-0521,St. Albert,Singapore
Nora,(541) 814-1013,Cincinnati,Cook Islands
Demetrius,(423) 143-7680,Paignton,Isle of Man
Hayley,(145) 810-3641,Knokke,South Sudan
Thane,(539) 246-8533,Alajuelita,Croatia
Cora,(907) 931-5650,Tintange,Angola
Eden,(178) 609-1928,Sens,Mongolia
Raymond,(324) 736-9595,Gonars,Montserrat
Myra,(751) 102-5524,Hull,Guyana
Berk,(991) 572-6144,Málaga,Maldives
Hoyt,(436) 535-8088,Lidingo,Bahamas
John,(619) 322-5677,Bonnert,Central African Republic
May,(741) 618-5053,Franeker,Angola
Ivan,(608) 373-2561,Dornbirn,Zimbabwe
Amethyst,(810) 727-0008,Tirunelveli,French Polynesia
Keely,(471) 186-5837,Calmar,"Bonaire, Sint Eustatius and Saba"
Leonard,(479) 213-4298,Qutubullapur,Benin
Charde,(150) 190-0006,Lacombe,American Samoa
Quinn,(558) 992-2397,Villenave-d'Ornon,Cayman Islands
Blake,(907) 932-2766,LaSalle,Ireland
Casey,(159) 919-4052,Argyle,Seychelles
Fuller,(849) 519-6250,Baisy-Thy,Montenegro
Barclay,(844) 514-1873,Griesheim,Latvia
Nathan,(737) 198-8032,Konstanz,Seychelles
Shana,(287) 661-7618,Pontey,Austria
Ella,(410) 188-9827,Laarne,El Salvador
Teagan,(169) 967-9002,Promo-Control,Kyrgyzstan
Yen,(379) 467-4399,Pangnirtung,Wallis and Futuna
Hop,(416) 372-2742,Lives-sur-Meuse,Colombia
Kamal,(791) 483-4843,Taber,United Kingdom (Great Britain)
